[{"OBJECT_NAME":"SITRO-AIS 8 (ANOKHIN)","OBJECT_ID":"2023-091AD","EPOCH":"2026-03-09T23:44:40.058592","MEAN_MOTION":15.29359179,"ECCENTRICITY":0.0012509,"INCLINATION":97.5169,"RA_OF_ASC_NODE":133.2823,"ARG_OF_PERICENTER":92.0171,"MEAN_ANOMALY":268.2501,"EPHEMERIS_TYPE":0,"CLASSIFICATION_TYPE":"U","NORAD_CAT_ID":57193,"ELEMENT_SET_NO":999,"REV_AT_EPOCH":14927,"BSTAR":0.00064982524,"MEAN_MOTION_DOT":0.00018494,"MEAN_MOTION_DDOT":0},{"OBJECT_NAME":"STARLINK-31148","OBJECT_ID":"2024-005P","EPOCH":"2026-03-09T22:00:01.999584","MEAN_MOTION":15.27549044,"ECCENTRICITY":0.00020105,"INCLINATION":43.0004,"RA_OF_ASC_NODE":218.2161,"ARG_OF_PERICENTER":282.0125,"MEAN_ANOMALY":359.9652,"EPHEMERIS_TYPE":0,"CLASSIFICATION_TYPE":"U","NORAD_CAT_ID":58741,"ELEMENT_SET_NO":999,"REV_AT_EPOCH":578,"BSTAR":0.0021954076,"MEAN_MOTION_DOT":0.00060592,"MEAN_MOTION_DDOT":0}]
